{
  "type": "FeatureCollection",
  "features": [
    {
      "type": "Feature",
      "properties": {
        "norad_id": 54259,
        "name": "EUTELSAT 10B",
        "group": "eutelsat",
        "lat": -0.04850693926010269,
        "lon": -33.66562113620044,
        "alt_km": 35789.23566860691,
        "timestamp": "2025-12-13T15:35:11.786692+00:00",
        "meta_object_name": "EUTELSAT 10B",
        "meta_object_id": "2022-157A",
        "meta_epoch": "2025-12-12T22:05:19.294944",
        "meta_mean_motion": 1.00270516,
        "meta_eccentricity": 6.833e-05,
        "meta_inclination": 0.0619,
        "meta_ra_of_asc_node": 99.1566,
        "meta_arg_of_pericenter": 53.3863,
        "meta_mean_anomaly": 270.6141,
        "meta_ephemeris_type": 0,
        "meta_classification_type": "U",
        "meta_norad_cat_id": 54259,
        "meta_element_set_no": 999,
        "meta_rev_at_epoch": 1115,
        "meta_bstar": 0,
        "meta_mean_motion_dot": 8.1e-07,
        "meta_mean_motion_ddot": 0,
        "tle_line1": "1 54259U 22157A   25346.92036221  .00000081  00000+0  00000+0 0  9994",
        "tle_line2": "2 54259   0.0619  99.1566 0000683  53.3863 270.6141  1.00270516 11155"
      },
      "geometry": {
        "type": "Point",
        "coordinates": [
          -33.66562113620044,
          -0.04850693926010269
        ]
      }
    },
    {
      "type": "Feature",
      "properties": {
        "norad_id": 59346,
        "name": "EUTELSAT 36D",
        "group": "eutelsat",
        "lat": 0.005243793570405554,
        "lon": -7.799334473264663,
        "alt_km": 35783.76687945335,
        "timestamp": "2025-12-13T15:35:11.786703+00:00",
        "meta_object_name": "EUTELSAT 36D",
        "meta_object_id": "2024-059A",
        "meta_epoch": "2025-12-12T22:12:41.090112",
        "meta_mean_motion": 1.00269446,
        "meta_eccentricity": 6.864e-05,
        "meta_inclination": 0.0196,
        "meta_ra_of_asc_node": 350.3258,
        "meta_arg_of_pericenter": 5.8335,
        "meta_mean_anomaly": 94.714,
        "meta_ephemeris_type": 0,
        "meta_classification_type": "U",
        "meta_norad_cat_id": 59346,
        "meta_element_set_no": 999,
        "meta_rev_at_epoch": 628,
        "meta_bstar": 0,
        "meta_mean_motion_dot": 0,
        "meta_mean_motion_ddot": 0,
        "tle_line1": "1 59346U 24059A   25346.92547558  .00000000  00000+0  00000+0 0  9990",
        "tle_line2": "2 59346   0.0196 350.3258 0000686   5.8335  94.7140  1.00269446  6288"
      },
      "geometry": {
        "type": "Point",
        "coordinates": [
          -7.799334473264663,
          0.005243793570405554
        ]
      }
    }
  ]
}